CCSDS_OMM_VERS = 2.0
CREATION_DATE  = 
ORIGINATOR     = 

OBJECT_NAME    = STARLINK-36349
OBJECT_ID      = 2026-038D
CENTER_NAME    = EARTH
REF_FRAME      = TEME
TIME_SYSTEM    = UTC
MEAN_ELEMENT_THEORY = SGP/SGP4

EPOCH          = 2026-03-24T12:00:01.999296
MEAN_MOTION    = 15.49015177
ECCENTRICITY   = .00014
INCLINATION    = 97.2858
RA_OF_ASC_NODE = 94.3126
ARG_OF_PERICENTER = 98.0958
MEAN_ANOMALY   = 257.5222

EPHEMERIS_TYPE = 0
CLASSIFICATION_TYPE = U
NORAD_CAT_ID   = 67964
ELEMENT_SET_NO = 999
REV_AT_EPOCH   = 558
BSTAR          = -.52162E-1
MEAN_MOTION_DOT = -.2501456E-1
MEAN_MOTION_DDOT = 0

CCSDS_OMM_VERS = 2.0
CREATION_DATE  = 
ORIGINATOR     = 

OBJECT_NAME    = STARLINK-36806
OBJECT_ID      = 2026-038E
CENTER_NAME    = EARTH
REF_FRAME      = TEME
TIME_SYSTEM    = UTC
MEAN_ELEMENT_THEORY = SGP/SGP4

EPOCH          = 2026-03-24T12:00:01.999296
MEAN_MOTION    = 15.40194759
ECCENTRICITY   = .0001498
INCLINATION    = 97.2846
RA_OF_ASC_NODE = 94.3652
ARG_OF_PERICENTER = 88.3371
MEAN_ANOMALY   = 6.4330

EPHEMERIS_TYPE = 0
CLASSIFICATION_TYPE = U
NORAD_CAT_ID   = 67965
ELEMENT_SET_NO = 999
REV_AT_EPOCH   = 558
BSTAR          = -.6171E-1
MEAN_MOTION_DOT = -.2220678E-1
MEAN_MOTION_DDOT = 0

CCSDS_OMM_VERS = 2.0
CREATION_DATE  = 
ORIGINATOR     = 

OBJECT_NAME    = STARLINK-36820
OBJECT_ID      = 2026-038F
CENTER_NAME    = EARTH
REF_FRAME      = TEME
TIME_SYSTEM    = UTC
MEAN_ELEMENT_THEORY = SGP/SGP4

EPOCH          = 2026-03-24T12:00:01.999296
MEAN_MOTION    = 15.40320400
ECCENTRICITY   = .0001644
INCLINATION    = 97.2856
RA_OF_ASC_NODE = 94.3670
ARG_OF_PERICENTER = 90.1100
MEAN_ANOMALY   = 18.2997

EPHEMERIS_TYPE = 0
CLASSIFICATION_TYPE = U
NORAD_CAT_ID   = 67966
ELEMENT_SET_NO = 999
REV_AT_EPOCH   = 558
BSTAR          = -.62293E-1
MEAN_MOTION_DOT = -.2247992E-1
MEAN_MOTION_DDOT = 0

CCSDS_OMM_VERS = 2.0
CREATION_DATE  = 
ORIGINATOR     = 

OBJECT_NAME    = STARLINK-36819
OBJECT_ID      = 2026-038G
CENTER_NAME    = EARTH
REF_FRAME      = TEME
TIME_SYSTEM    = UTC
MEAN_ELEMENT_THEORY = SGP/SGP4

EPOCH          = 2026-03-24T11:29:03.968160
MEAN_MOTION    = 15.49222153
ECCENTRICITY   = .0001049
INCLINATION    = 97.2856
RA_OF_ASC_NODE = 94.1919
ARG_OF_PERICENTER = 112.5233
MEAN_ANOMALY   = 247.6129

EPHEMERIS_TYPE = 0
CLASSIFICATION_TYPE = U
NORAD_CAT_ID   = 67967
ELEMENT_SET_NO = 999
REV_AT_EPOCH   = 549
BSTAR          = .86577E-3
MEAN_MOTION_DOT = .47335E-3
MEAN_MOTION_DDOT = 0

CCSDS_OMM_VERS = 2.0
CREATION_DATE  = 
ORIGINATOR     = 

OBJECT_NAME    = STARLINK-36812
OBJECT_ID      = 2026-038H
CENTER_NAME    = EARTH
REF_FRAME      = TEME
TIME_SYSTEM    = UTC
MEAN_ELEMENT_THEORY = SGP/SGP4

EPOCH          = 2026-03-24T12:00:01.999296
MEAN_MOTION    = 15.41339800
ECCENTRICITY   = .0001685
INCLINATION    = 97.2853
RA_OF_ASC_NODE = 94.3774
ARG_OF_PERICENTER = 83.0361
MEAN_ANOMALY   = 50.7730

EPHEMERIS_TYPE = 0
CLASSIFICATION_TYPE = U
NORAD_CAT_ID   = 67968
ELEMENT_SET_NO = 999
REV_AT_EPOCH   = 558
BSTAR          = -.59717E-1
MEAN_MOTION_DOT = -.2231291E-1
MEAN_MOTION_DDOT = 0

CCSDS_OMM_VERS = 2.0
CREATION_DATE  = 
ORIGINATOR     = 

OBJECT_NAME    = STARLINK-36709
OBJECT_ID      = 2026-038J
CENTER_NAME    = EARTH
REF_FRAME      = TEME
TIME_SYSTEM    = UTC
MEAN_ELEMENT_THEORY = SGP/SGP4

EPOCH          = 2026-03-24T12:00:01.999296
MEAN_MOTION    = 15.43153370
ECCENTRICITY   = .0001613
INCLINATION    = 97.2853
RA_OF_ASC_NODE = 94.3860
ARG_OF_PERICENTER = 72.6975
MEAN_ANOMALY   = 79.7287

EPHEMERIS_TYPE = 0
CLASSIFICATION_TYPE = U
NORAD_CAT_ID   = 67969
ELEMENT_SET_NO = 999
REV_AT_EPOCH   = 558
BSTAR          = -.5623E-1
MEAN_MOTION_DOT = -.2193359E-1
MEAN_MOTION_DDOT = 0

CCSDS_OMM_VERS = 2.0
CREATION_DATE  = 
ORIGINATOR     = 

OBJECT_NAME    = STARLINK-36319
OBJECT_ID      = 2026-038K
CENTER_NAME    = EARTH
REF_FRAME      = TEME
TIME_SYSTEM    = UTC
MEAN_ELEMENT_THEORY = SGP/SGP4

EPOCH          = 2026-03-24T12:00:01.999296
MEAN_MOTION    = 15.44061471
ECCENTRICITY   = .0001465
INCLINATION    = 97.2854
RA_OF_ASC_NODE = 94.3426
ARG_OF_PERICENTER = 91.3338
MEAN_ANOMALY   = 319.9864

EPHEMERIS_TYPE = 0
CLASSIFICATION_TYPE = U
NORAD_CAT_ID   = 67970
ELEMENT_SET_NO = 999
REV_AT_EPOCH   = 555
BSTAR          = -.5235E-1
MEAN_MOTION_DOT = -.2115854E-1
MEAN_MOTION_DDOT = 0

CCSDS_OMM_VERS = 2.0
CREATION_DATE  = 
ORIGINATOR     = 

OBJECT_NAME    = STARLINK-36710
OBJECT_ID      = 2026-038L
CENTER_NAME    = EARTH
REF_FRAME      = TEME
TIME_SYSTEM    = UTC
MEAN_ELEMENT_THEORY = SGP/SGP4

EPOCH          = 2026-03-24T12:00:01.999296
MEAN_MOTION    = 15.42013756
ECCENTRICITY   = .0001883
INCLINATION    = 97.2858
RA_OF_ASC_NODE = 94.3952
ARG_OF_PERICENTER = 74.7937
MEAN_ANOMALY   = 99.6643

EPHEMERIS_TYPE = 0
CLASSIFICATION_TYPE = U
NORAD_CAT_ID   = 67971
ELEMENT_SET_NO = 999
REV_AT_EPOCH   = 558
BSTAR          = -.58446E-1
MEAN_MOTION_DOT = -.2233488E-1
MEAN_MOTION_DDOT = 0

CCSDS_OMM_VERS = 2.0
CREATION_DATE  = 
ORIGINATOR     = 

OBJECT_NAME    = STARLINK-36894
OBJECT_ID      = 2026-038M
CENTER_NAME    = EARTH
REF_FRAME      = TEME
TIME_SYSTEM    = UTC
MEAN_ELEMENT_THEORY = SGP/SGP4

EPOCH          = 2026-03-24T12:00:01.999296
MEAN_MOTION    = 15.42235711
ECCENTRICITY   = .000191
INCLINATION    = 97.2849
RA_OF_ASC_NODE = 94.4019
ARG_OF_PERICENTER = 87.3083
MEAN_ANOMALY   = 101.1801

EPHEMERIS_TYPE = 0
CLASSIFICATION_TYPE = U
NORAD_CAT_ID   = 67972
ELEMENT_SET_NO = 999
REV_AT_EPOCH   = 558
BSTAR          = -.58027E-1
MEAN_MOTION_DOT = -.219451E-1
MEAN_MOTION_DDOT = 0

CCSDS_OMM_VERS = 2.0
CREATION_DATE  = 
ORIGINATOR     = 

OBJECT_NAME    = STARLINK-36900
OBJECT_ID      = 2026-038N
CENTER_NAME    = EARTH
REF_FRAME      = TEME
TIME_SYSTEM    = UTC
MEAN_ELEMENT_THEORY = SGP/SGP4

EPOCH          = 2026-03-24T00:02:20.101920
MEAN_MOTION    = 15.49184011
ECCENTRICITY   = .00011996
INCLINATION    = 97.2851
RA_OF_ASC_NODE = 93.7703
ARG_OF_PERICENTER = 87.4725
MEAN_ANOMALY   = 272.6664

EPHEMERIS_TYPE = 0
CLASSIFICATION_TYPE = U
NORAD_CAT_ID   = 67973
ELEMENT_SET_NO = 999
REV_AT_EPOCH   = 542
BSTAR          = .1211113E-2
MEAN_MOTION_DOT = .66324E-3
MEAN_MOTION_DDOT = 0

CCSDS_OMM_VERS = 2.0
CREATION_DATE  = 
ORIGINATOR     = 

OBJECT_NAME    = STARLINK-36901
OBJECT_ID      = 2026-038P
CENTER_NAME    = EARTH
REF_FRAME      = TEME
TIME_SYSTEM    = UTC
MEAN_ELEMENT_THEORY = SGP/SGP4

EPOCH          = 2026-03-24T12:00:01.999296
MEAN_MOTION    = 15.42879657
ECCENTRICITY   = .0001982
INCLINATION    = 97.2857
RA_OF_ASC_NODE = 94.4060
ARG_OF_PERICENTER = 77.4196
MEAN_ANOMALY   = 121.8459

EPHEMERIS_TYPE = 0
CLASSIFICATION_TYPE = U
NORAD_CAT_ID   = 67974
ELEMENT_SET_NO = 999
REV_AT_EPOCH   = 558
BSTAR          = -.56353E-1
MEAN_MOTION_DOT = -.2179992E-1
MEAN_MOTION_DDOT = 0

CCSDS_OMM_VERS = 2.0
CREATION_DATE  = 
ORIGINATOR     = 

OBJECT_NAME    = STARLINK-36883
OBJECT_ID      = 2026-038Q
CENTER_NAME    = EARTH
REF_FRAME      = TEME
TIME_SYSTEM    = UTC
MEAN_ELEMENT_THEORY = SGP/SGP4

EPOCH          = 2026-03-24T12:00:01.999296
MEAN_MOTION    = 15.49183903
ECCENTRICITY   = .0001847
INCLINATION    = 97.2859
RA_OF_ASC_NODE = 94.3951
ARG_OF_PERICENTER = 102.1722
MEAN_ANOMALY   = 78.0181

EPHEMERIS_TYPE = 0
CLASSIFICATION_TYPE = U
NORAD_CAT_ID   = 67975
ELEMENT_SET_NO = 999
REV_AT_EPOCH   = 558
BSTAR          = .28591E-3
MEAN_MOTION_DOT = .15488E-3
MEAN_MOTION_DDOT = 0

