STARLINK-36349          
1 67964U 26038D   26083.50002314 -.02501456  00000+0 -52162-1 0  9996
2 67964  97.2858  94.3126 0001400  98.0958 257.5222 15.49015177  5585
STARLINK-36806          
1 67965U 26038E   26083.50002314 -.02220678  00000+0 -61710-1 0  9990
2 67965  97.2846  94.3652 0001498  88.3371   6.4330 15.40194759  5581
STARLINK-36820          
1 67966U 26038F   26083.50002314 -.02247992  00000+0 -62293-1 0  9996
2 67966  97.2856  94.3670 0001644  90.1100  18.2997 15.40320400  5581
STARLINK-36819          
1 67967U 26038G   26083.47851815  .00047335  00000+0  86577-3 0  9999
2 67967  97.2856  94.1919 0001049 112.5233 247.6129 15.49222153  5491
STARLINK-36812          
1 67968U 26038H   26083.50002314 -.02231291  00000+0 -59717-1 0  9990
2 67968  97.2853  94.3774 0001685  83.0361  50.7730 15.41339800  5581
STARLINK-36709          
1 67969U 26038J   26083.50002314 -.02193359  00000+0 -56230-1 0  9990
2 67969  97.2853  94.3860 0001613  72.6975  79.7287 15.43153370  5580
STARLINK-36319          
1 67970U 26038K   26083.50002314 -.02115854  00000+0 -52350-1 0  9995
2 67970  97.2854  94.3426 0001465  91.3338 319.9864 15.44061471  5555
STARLINK-36710          
1 67971U 26038L   26083.50002314 -.02233488  00000+0 -58446-1 0  9992
2 67971  97.2858  94.3952 0001883  74.7937  99.6643 15.42013756  5589
STARLINK-36894          
1 67972U 26038M   26083.50002314 -.02194510  00000+0 -58027-1 0  9990
2 67972  97.2849  94.4019 0001910  87.3083 101.1801 15.42235711  5580
STARLINK-36900          
1 67973U 26038N   26083.00162155  .00066324  00000+0  12111-2 0  9998
2 67973  97.2851  93.7703 0001199  87.4725 272.6664 15.49184011  5426
STARLINK-36901          
1 67974U 26038P   26083.50002314 -.02179992  00000+0 -56353-1 0  9999
2 67974  97.2857  94.4060 0001982  77.4196 121.8459 15.42879657  5582
STARLINK-36883          
1 67975U 26038Q   26083.50002314  .00015488  00000+0  28591-3 0  9990
2 67975  97.2859  94.3951 0001847 102.1722  78.0181 15.49183903  5588
